#aV2012  1  5  0  0   .00000000      96 DD+AD WGS84 FIT  NGA
## 1669 345600.00000000   900.00000000 55931  .0000000000000
+   31     1  2  3  4  5  6  7  8  9 10 11 12 13 14 15 16 17
+         18 19 20 21 22 23 25 26 27 28 29 30 31 32  0  0  0
+          0  0  0  0  0  0  0  0  0  0  0  0  0  0  0  0  0
+          0  0  0  0  0  0  0  0  0  0  0  0  0  0  0  0  0
+          0  0  0  0  0  0  0  0  0  0  0  0  0  0  0  0  0
++         0  0  0  0  0  0  0  0  0  0  0  0  0  0  0  0  0
++         0  0  0  0  0  0  0  0  0  0  0  0  0  0  0  0  0
++         0  0  0  0  0  0  0  0  0  0  0  0  0  0  0  0  0
++         0  0  0  0  0  0  0  0  0  0  0  0  0  0  0  0  0
++         0  0  0  0  0  0  0  0  0  0  0  0  0  0  0  0  0
%c cc cc ccc ccc cccc cccc cccc cccc ccccc ccccc ccccc ccccc
%c cc cc ccc ccc cccc cccc cccc cccc ccccc ccccc ccccc ccccc
%f  0.0000000  0.000000000  0.00000000000  0.000000000000000
%f  0.0000000  0.000000000  0.00000000000  0.000000000000000
%i    0    0    0    0      0      0      0      0         0
%i    0    0    0    0      0      0      0      0         0
/*      NGA, ST. LOUIS,MO.                                  
/*   EPHEMERIS COMPUTED FROM  3 DAYS OF DATA                
/* CCCCCCCCCCCCCCCCCCCCCCCCCCCCCCCCCCCCCCCCCCCCCCCCCCCCCCCCC
/* CCCCCCCCCCCCCCCCCCCCCCCCCCCCCCCCCCCCCCCCCCCCCCCCCCCCCCCCC
*  2012  1  5  0 15   .00000000                                                 
P  1 -15403.490985   1448.564501  21572.192370    169.333449                    
V  1  -8026.770804 -26238.079395  -3954.912890       .138375                    
P  2  13812.349135  21202.666167  -8776.079894    373.300325                    
V  2    815.341429  11479.342852  28227.650894       .016662                    
P  3 -20762.847436 -11393.218084 -12758.927574    817.834399                    
V  3  15630.493648  -1325.071381 -24870.568635       .051168                    
P  4   6414.501652  25488.246137   2029.275973     53.818329                    
V  4  -4536.876146  -1616.029628  31297.052720       .113405                    
P  5  13045.273569   8480.039740 -21556.013944   -266.599046                    
V  5 -18310.891696  20303.042860  -2975.378954      -.046900                    
P  6 -17324.122331 -13816.203214 -14703.748205     21.693546                    
V  6  19002.921782    674.064254 -22549.576916       .031986                    
P  7  -8731.342463  16076.025946 -19141.639544     47.802023                    
V  7  -8222.131199 -23008.454484 -15788.928545       .025351                    
P  8  -2242.407001  23715.302805 -11053.957842       .295474                    
V  8  -4807.755101 -13577.172667 -28550.902959       .002242                    
P  9  15569.073161   3267.531795  20717.674777    129.665334                    
V  9   7880.040392  26380.916287  -9851.890694       .024355                    
P 10  -4187.231278  20863.414608 -15883.702236    -24.508301                    
V 10 -15527.669127  12720.428416  21516.668415      -.013917                    
P 11 -19520.108847  -4523.578188  17206.167181   -219.808040                    
V 11 -10025.892044 -20594.253588 -16105.383695      -.035578                    
P 12  20823.949793  -7542.577738  14532.876760     44.699863                    
V 12 -11492.895313  14581.213731  24222.003424       .022240                    
P 13 -17594.090105   7326.407879 -18673.328029    232.496227                    
V 13 -21931.188187  -8015.081078  17569.913906      -.020911                    
P 14  -2718.815091 -15735.253162  21427.115870    188.708223                    
V 14  25781.177524   6984.127039   8333.925243       .015710                    
P 15  26324.529922   3515.617857   2462.135648    -95.255638                    
V 15   2446.259001   3601.218092 -31121.665910       .007611                    
P 16 -11830.308707  -9057.546262 -21983.618960   -217.312389                    
V 16  19663.150585 -19769.644516  -2142.020900      -.018081                    
P 17    217.945987  15634.892755  21650.595964    156.655631                    
V 17 -26296.343763  -6511.631678   4765.234713      -.020713                    
P 18  16556.037442 -20387.864931   2609.276255    175.204348                    
V 18   4963.412624    611.647537 -31076.533989       .018271                    
P 19 -25567.889929  -7913.392999    271.604824   -222.293920                    
V 19    401.637485  -2529.975352 -31485.970893      -.039065                    
P 20 -20894.433383   9864.552585  12876.445677     59.395266                    
V 20   8439.613110 -14743.045016  24755.723167       .007764                    
P 21   6334.065975 -19693.665884 -15868.359893   -195.433806                    
V 21   9062.393370  19516.732058 -20633.231040      -.025825                    
P 22   5363.175090 -21556.646797  14652.057187    142.993962                    
V 22  14739.604971 -11436.021950 -22598.599309       .001608                    
P 23 -24510.127499   1710.595438 -10510.997539    244.742243                    
V 23 -12405.349965  -5173.601787  27657.069450      -.033519                    
P 25  19927.762617 -16720.839264   5242.453484     30.879747                    
V 25  -2557.862546   6699.174625  30983.971075       .002558                    
P 26  21403.152904  13324.583616  -9559.149415   -287.124707                    
V 26 -11042.366353  -1968.599148 -28965.072408      -.140701                    
P 27  16871.918421  10504.637384  18469.036903    342.961638                    
V 27   6635.657834  20937.129607 -18206.865688       .038903                    
P 28  -8814.287574  21396.622703  13357.445794     99.638970                    
V 28 -12767.417014  10036.350810 -25787.846972       .036069                    
P 29  18591.675093  -7498.179020 -17339.014563    272.194440                    
V 29  20953.118297   7393.276681  19234.826144       .034097                    
P 30  -4635.894812 -17250.051676 -20007.692658      1.243542                    
V 30  15687.018912 -19043.622650  13024.906577      -.110905                    
P 31  -7367.762045 -25385.070340    224.737529    191.466637                    
V 31   2305.012031   -644.543654  32336.207403       .048419                    
P 32 -19407.699785    231.607485  18155.762054   -387.836186                    
V 32  15566.756505 -16741.758973  17530.307922      -.056955                    
EOF
